[{"OBJECT_NAME":"AISTECHSAT 2","OBJECT_ID":"2018-099L","EPOCH":"2026-03-09T16:20:03.228288","MEAN_MOTION":15.14339272,"ECCENTRICITY":0.00032581,"INCLINATION":97.4431,"RA_OF_ASC_NODE":118.9026,"ARG_OF_PERICENTER":288.6059,"MEAN_ANOMALY":71.4819,"EPHEMERIS_TYPE":0,"CLASSIFICATION_TYPE":"U","NORAD_CAT_ID":43768,"ELEMENT_SET_NO":999,"REV_AT_EPOCH":39721,"BSTAR":0.00042226412,"MEAN_MOTION_DOT":7.677e-5,"MEAN_MOTION_DDOT":0},{"OBJECT_NAME":"OBJECT C","OBJECT_ID":"2025-108C","EPOCH":"2026-03-09T22:37:32.676384","MEAN_MOTION":15.13945167,"ECCENTRICITY":0.00134886,"INCLINATION":97.4753,"RA_OF_ASC_NODE":145.0046,"ARG_OF_PERICENTER":355.6312,"MEAN_ANOMALY":4.48,"EPHEMERIS_TYPE":0,"CLASSIFICATION_TYPE":"U","NORAD_CAT_ID":64089,"ELEMENT_SET_NO":999,"REV_AT_EPOCH":4425,"BSTAR":0.00040295487,"MEAN_MOTION_DOT":7.256e-5,"MEAN_MOTION_DDOT":0}]
